{
  "type": "FeatureCollection",
  "features": [
    {
      "type": "Feature",
      "properties": {
        "norad_id": 28051,
        "name": "IRS-P6 (RESOURCESAT-1)",
        "group": "resource",
        "lat": 4.289255891830132,
        "lon": 19.049152526772158,
        "alt_km": 816.7236014549526,
        "timestamp": "2025-12-04T21:36:15.530750+00:00",
        "meta_object_name": "IRS-P6 (RESOURCESAT-1)",
        "meta_object_id": "2003-046A",
        "meta_epoch": "2025-12-04T15:37:43.115808",
        "meta_mean_motion": 14.36069027,
        "meta_eccentricity": 0.00637264,
        "meta_inclination": 98.219,
        "meta_ra_of_asc_node": 19.4328,
        "meta_arg_of_pericenter": 205.0341,
        "meta_mean_anomaly": 312.6931,
        "meta_ephemeris_type": 0,
        "meta_classification_type": "U",
        "meta_norad_cat_id": 28051,
        "meta_element_set_no": 999,
        "meta_rev_at_epoch": 15260,
        "meta_bstar": 0.00015801707,
        "meta_mean_motion_dot": 4.29e-06,
        "meta_mean_motion_ddot": 0,
        "tle_line1": "1 28051U 03046A   25338.65119347  .00000429  00000+0  15802-3 0  9999",
        "tle_line2": "2 28051  98.2190  19.4328 0063726 205.0341 312.6931 14.36069027152600"
      },
      "geometry": {
        "type": "Point",
        "coordinates": [
          19.049152526772158,
          4.289255891830132
        ]
      }
    },
    {
      "type": "Feature",
      "properties": {
        "norad_id": 28220,
        "name": "SHIYAN-1 (SY-1)",
        "group": "resource",
        "lat": 12.197927279485008,
        "lon": -138.30265293037056,
        "alt_km": 487.88024761885663,
        "timestamp": "2025-12-04T21:36:15.530762+00:00",
        "meta_object_name": "SHIYAN-1 (SY-1)",
        "meta_object_id": "2004-012A",
        "meta_epoch": "2025-12-04T14:35:08.938176",
        "meta_mean_motion": 15.27821543,
        "meta_eccentricity": 0.00062232,
        "meta_inclination": 97.8952,
        "meta_ra_of_asc_node": 39.6687,
        "meta_arg_of_pericenter": 355.6635,
        "meta_mean_anomaly": 4.4548,
        "meta_ephemeris_type": 0,
        "meta_classification_type": "U",
        "meta_norad_cat_id": 28220,
        "meta_element_set_no": 999,
        "meta_rev_at_epoch": 18132,
        "meta_bstar": 0.0010040346,
        "meta_mean_motion_dot": 0.00027283,
        "meta_mean_motion_ddot": 0,
        "tle_line1": "1 28220U 04012A   25338.60774234  .00027283  00000+0  10040-2 0  9993",
        "tle_line2": "2 28220  97.8952  39.6687 0006223 355.6635   4.4548 15.27821543181329"
      },
      "geometry": {
        "type": "Point",
        "coordinates": [
          -138.30265293037056,
          12.197927279485008
        ]
      }
    },
    {
      "type": "Feature",
      "properties": {
        "norad_id": 28376,
        "name": "AURA",
        "group": "resource",
        "lat": -68.15569183839506,
        "lon": -49.50642676598201,
        "alt_km": 698.2189490680648,
        "timestamp": "2025-12-04T21:36:15.530773+00:00",
        "meta_object_name": "AURA",
        "meta_object_id": "2004-026A",
        "meta_epoch": "2025-12-04T13:42:15.152544",
        "meta_mean_motion": 14.60916608,
        "meta_eccentricity": 0.00011322,
        "meta_inclination": 98.3171,
        "meta_ra_of_asc_node": 288.7602,
        "meta_arg_of_pericenter": 92.7082,
        "meta_mean_anomaly": 267.4248,
        "meta_ephemeris_type": 0,
        "meta_classification_type": "U",
        "meta_norad_cat_id": 28376,
        "meta_element_set_no": 999,
        "meta_rev_at_epoch": 13779,
        "meta_bstar": 0.00053420505,
        "meta_mean_motion_dot": 2.568e-05,
        "meta_mean_motion_ddot": 0,
        "tle_line1": "1 28376U 04026A   25338.57100871  .00002568  00000+0  53421-3 0  9996",
        "tle_line2": "2 28376  98.3171 288.7602 0001132  92.7082 267.4248 14.60916608137796"
      },
      "geometry": {
        "type": "Point",
        "coordinates": [
          -49.50642676598201,
          -68.15569183839506
        ]
      }
    },
    {
      "type": "Feature",
      "properties": {
        "norad_id": 28649,
        "name": "IRS-P5 (CARTOSAT-1)",
        "group": "resource",
        "lat": 33.34318226245775,
        "lon": 0.6552957039185342,
        "alt_km": 593.6382211300988,
        "timestamp": "2025-12-04T21:36:15.530785+00:00",
        "meta_object_name": "IRS-P5 (CARTOSAT-1)",
        "meta_object_id": "2005-017A",
        "meta_epoch": "2025-12-04T15:00:30.139776",
        "meta_mean_motion": 14.90362164,
        "meta_eccentricity": 0.0001718,
        "meta_inclination": 97.5498,
        "meta_ra_of_asc_node": 5.3988,
        "meta_arg_of_pericenter": 52.3867,
        "meta_mean_anomaly": 307.7507,
        "meta_ephemeris_type": 0,
        "meta_classification_type": "U",
        "meta_norad_cat_id": 28649,
        "meta_element_set_no": 999,
        "meta_rev_at_epoch": 11483,
        "meta_bstar": 0.00042194482,
        "meta_mean_motion_dot": 4.054e-05,
        "meta_mean_motion_ddot": 0,
        "tle_line1": "1 28649U 05017A   25338.62534884  .00004054  00000+0  42194-3 0  9998",
        "tle_line2": "2 28649  97.5498   5.3988 0001718  52.3867 307.7507 14.90362164114836"
      },
      "geometry": {
        "type": "Point",
        "coordinates": [
          0.6552957039185342,
          33.34318226245775
        ]
      }
    },
    {
      "type": "Feature",
      "properties": {
        "norad_id": 28893,
        "name": "SINAH 1",
        "group": "resource",
        "lat": 50.555181379092936,
        "lon": 97.2665754440773,
        "alt_km": 679.2342861165771,
        "timestamp": "2025-12-04T21:36:15.530796+00:00",
        "meta_object_name": "SINAH 1",
        "meta_object_id": "2005-043D",
        "meta_epoch": "2025-12-04T14:48:31.814496",
        "meta_mean_motion": 14.63948246,
        "meta_eccentricity": 0.00148972,
        "meta_inclination": 98.26,
        "meta_ra_of_asc_node": 107.1528,
        "meta_arg_of_pericenter": 161.35,
        "meta_mean_anomaly": 198.8251,
        "meta_ephemeris_type": 0,
        "meta_classification_type": "U",
        "meta_norad_cat_id": 28893,
        "meta_element_set_no": 999,
        "meta_rev_at_epoch": 7205,
        "meta_bstar": 0.00019551986,
        "meta_mean_motion_dot": 9.76e-06,
        "meta_mean_motion_ddot": 0,
        "tle_line1": "1 28893U 05043D   25338.61703489  .00000976  00000+0  19552-3 0  9997",
        "tle_line2": "2 28893  98.2600 107.1528 0014897 161.3500 198.8251 14.63948246 72051"
      },
      "geometry": {
        "type": "Point",
        "coordinates": [
          97.2665754440773,
          50.555181379092936
        ]
      }
    },
    {
      "type": "Feature",
      "properties": {
        "norad_id": 29079,
        "name": "EROS B",
        "group": "resource",
        "lat": 44.531844998519446,
        "lon": 87.82300854690581,
        "alt_km": 370.0775019082248,
        "timestamp": "2025-12-04T21:36:15.530807+00:00",
        "meta_object_name": "EROS B",
        "meta_object_id": "2006-014A",
        "meta_epoch": "2025-12-04T15:16:31.014912",
        "meta_mean_motion": 15.65172486,
        "meta_eccentricity": 0.00020734,
        "meta_inclination": 97.3493,
        "meta_ra_of_asc_node": 94.843,
        "meta_arg_of_pericenter": 242.3657,
        "meta_mean_anomaly": 117.7393,
        "meta_ephemeris_type": 0,
        "meta_classification_type": "U",
        "meta_norad_cat_id": 29079,
        "meta_element_set_no": 999,
        "meta_rev_at_epoch": 8953,
        "meta_bstar": 0.0022727605,
        "meta_mean_motion_dot": 0.00230202,
        "meta_mean_motion_ddot": 0,
        "tle_line1": "1 29079U 06014A   25338.63647008  .00230202  00000+0  22728-2 0  9994",
        "tle_line2": "2 29079  97.3493  94.8430 0002073 242.3657 117.7393 15.65172486 89534"
      },
      "geometry": {
        "type": "Point",
        "coordinates": [
          87.82300854690581,
          44.531844998519446
        ]
      }
    },
    {
      "type": "Feature",
      "properties": {
        "norad_id": 29228,
        "name": "RESURS-DK 1",
        "group": "resource",
        "lat": 39.871710299633406,
        "lon": 139.87436516861382,
        "alt_km": 530.2245911062719,
        "timestamp": "2025-12-04T21:36:15.530818+00:00",
        "meta_object_name": "RESURS-DK 1",
        "meta_object_id": "2006-021A",
        "meta_epoch": "2025-12-04T13:28:34.366368",
        "meta_mean_motion": 15.1208839,
        "meta_eccentricity": 0.00077981,
        "meta_inclination": 69.9331,
        "meta_ra_of_asc_node": 122.9706,
        "meta_arg_of_pericenter": 264.4868,
        "meta_mean_anomaly": 95.5408,
        "meta_ephemeris_type": 0,
        "meta_classification_type": "U",
        "meta_norad_cat_id": 29228,
        "meta_element_set_no": 999,
        "meta_rev_at_epoch": 7314,
        "meta_bstar": 0.00035472254,
        "meta_mean_motion_dot": 6.02e-05,
        "meta_mean_motion_ddot": 0,
        "tle_line1": "1 29228U 06021A   25338.56150887  .00006020  00000+0  35472-3 0  9994",
        "tle_line2": "2 29228  69.9331 122.9706 0007798 264.4868  95.5408 15.12088390 73145"
      },
      "geometry": {
        "type": "Point",
        "coordinates": [
          139.87436516861382,
          39.871710299633406
        ]
      }
    }
  ]
}